NORAD_CAT_ID,OBJECT_NAME,OBJECT_TYPE,EPOCH,MEAN_MOTION,ECCENTRICITY,INCLINATION,RA_OF_ASC_NODE,ARG_OF_PERICENTER,MEAN_ANOMALY,BSTAR,MEAN_MOTION_DOT,MEAN_MOTION_DDOT,TLE_LINE0,TLE_LINE1,TLE_LINE2,SEMIMAJOR_AXIS,PERIOD,APOGEE,PERIGEE,DECAYED
53894.0,STARLINK-5043,PAYLOAD,2024-06-17 13:04:33,15.08838761,0.000119,53.2152,272.9886,86.1313,273.9816,7.0796e-06,-1.75e-06,0.0,0 STARLINK-5043,1 53894U 22119J   24169.54483001 -.00000175  00000-0  70796-5 0  9999,2 53894  53.2152 272.9886 0001190  86.1313 273.9816 15.08838761 96552,6917.884,95.438,540.572,538.926,0.0
53894.0,STARLINK-5043,PAYLOAD,2024-06-18 12:55:20,15.08839511,0.0001203,53.2139,268.5255,86.5606,273.5524,0.00011052,1.471e-05,0.0,0 STARLINK-5043,1 53894U 22119J   24170.53843233  .00001471  00000-0  11052-3 0  9994,2 53894  53.2139 268.5255 0001203  86.5606 273.5524 15.08839511 96288,6917.882,95.438,540.579,538.915,0.0
53894.0,STARLINK-5043,PAYLOAD,2024-06-19 12:46:07,15.08845561,0.0001245,53.2159,264.0655,90.2932,269.8203,0.00016541,2.346e-05,0.0,0 STARLINK-5043,1 53894U 22119J   24171.53203044  .00002346  00000-0  16541-3 0  9995,2 53894  53.2159 264.0655 0001245  90.2932 269.8203 15.08845561 96852,6917.863,95.437,540.59,538.867,0.0
53894.0,STARLINK-5043,PAYLOAD,2024-06-20 12:36:54,15.08845348,0.0001248,53.2158,259.605,89.8009,270.3126,9.262e-05,1.187e-05,0.0,0 STARLINK-5043,1 53894U 22119J   24172.52562996  .00001187  00000-0  92620-4 0  9994,2 53894  53.2158 259.6050 0001248  89.8009 270.3126 15.08845348 97004,6917.864,95.437,540.592,538.866,0.0
53894.0,STARLINK-5043,PAYLOAD,2024-06-21 10:52:18,15.0883976,0.0001275,53.2165,255.443,89.7649,270.3489,6.2384e-05,7.05e-06,0.0,0 STARLINK-5043,1 53894U 22119J   24173.45299536  .00000705  00000-0  62384-4 0  9993,2 53894  53.2165 255.4430 0001275  89.7649 270.3489 15.08839760 96728,6917.881,95.438,540.628,538.864,0.0
53894.0,STARLINK-5043,PAYLOAD,2024-06-22 10:43:06,15.08836282,0.0001229,53.2163,250.9844,93.2887,266.8246,4.6763e-05,4.56e-06,0.0,0 STARLINK-5043,1 53894U 22119J   24174.44659785  .00000456  00000-0  46763-4 0  9995,2 53894  53.2163 250.9844 0001229  93.2887 266.8246 15.08836282 97298,6917.892,95.438,540.607,538.907,0.0
53894.0,STARLINK-5043,PAYLOAD,2024-06-23 12:09:16,15.08838922,0.0001198,53.2159,246.2255,98.4979,261.6149,8.9576e-05,1.138e-05,0.0,0 STARLINK-5043,1 53894U 22119J   24175.50643718  .00001138  00000-0  89576-4 0  9999,2 53894  53.2159 246.2255 0001198  98.4979 261.6149 15.08838922 97031,6917.884,95.438,540.577,538.92,0.0
53894.0,STARLINK-5043,PAYLOAD,2024-06-24 12:00:02,15.0884422,0.0001205,53.2158,241.7617,80.7447,279.3681,0.00013954,1.934e-05,0.0,0 STARLINK-5043,1 53894U 22119J   24176.50003341  .00001934  00000-0  13954-3 0  9992,2 53894  53.2158 241.7617 0001205  80.7447 279.3681 15.08844220 97603,6917.867,95.437,540.566,538.899,0.0
53894.0,STARLINK-5043,PAYLOAD,2024-06-25 11:50:50,15.08839229,0.0001327,53.2166,237.3013,80.1309,279.9833,3.7853e-05,3.15e-06,0.0,0 STARLINK-5043,1 53894U 22119J   24177.49364120  .00000315  00000-0  37853-4 0  9993,2 53894  53.2166 237.3013 0001327  80.1309 279.9833 15.08839229 97337,6917.883,95.438,540.666,538.83,0.0
53894.0,STARLINK-5043,PAYLOAD,2024-06-26 11:41:36,15.08853187,0.0001327,53.2168,232.8398,86.7718,273.3425,0.00016224,2.296e-05,0.0,0 STARLINK-5043,1 53894U 22119J   24178.48722827  .00002296  00000-0  16224-3 0  9993,2 53894  53.2168 232.8398 0001327  86.7718 273.3425 15.08853187 97481,6917.84,95.437,540.623,538.787,0.0
53894.0,STARLINK-5043,PAYLOAD,2024-06-27 09:57:01,15.08841858,0.0001082,53.2146,228.6781,94.3804,265.7311,6.9117e-05,8.12e-06,0.0,0 STARLINK-5043,1 53894U 22119J   24179.41459594  .00000812  00000-0  69117-4 0  9997,2 53894  53.2146 228.6781 0001082  94.3804 265.7311 15.08841858 97622,6917.875,95.437,540.488,538.991,0.0
53894.0,STARLINK-5043,PAYLOAD,2024-06-28 11:23:10,15.0884771,0.0001287,53.2146,223.9232,115.5485,244.5641,5.4702e-05,5.83e-06,0.0,0 STARLINK-5043,1 53894U 22119J   24180.47443170  .00000583  00000-0  54702-4 0  9997,2 53894  53.2146 223.9232 0001287 115.5485 244.5641 15.08847710 97780,6917.857,95.437,540.612,538.831,0.0
53894.0,STARLINK-5043,PAYLOAD,2024-06-29 12:49:22,15.08835382,0.000133,53.2149,219.1617,91.3962,268.7183,3.9869e-05,3.47e-06,0.0,0 STARLINK-5043,1 53894U 22119J   24181.53428266  .00000347  00000-0  39869-4 0  9999,2 53894  53.2149 219.1617 0001330  91.3962 268.7183 15.08835382 97946,6917.895,95.438,540.68,538.839,0.0
53894.0,STARLINK-5043,PAYLOAD,2024-06-29 19:10:54,15.08834676,0.0001329,53.215,217.9721,90.6029,269.5115,4.1171e-05,3.67e-06,0.0,0 STARLINK-5043,1 53894U 22119J   24181.79924387  .00000367  00000-0  41171-4 0  9993,2 53894  53.2150 217.9721 0001329  90.6029 269.5115 15.08834676 98405,6917.897,95.438,540.681,538.842,0.0
53894.0,STARLINK-5043,PAYLOAD,2024-06-30 11:04:46,15.0883257,0.0001308,53.215,214.9999,91.0003,269.1139,-4.0533e-05,-9.33e-06,0.0,0 STARLINK-5043,1 53894U 22119J   24182.46165155 -.00000933  00000-0 -40533-4 0  9990,2 53894  53.2150 214.9999 0001308  91.0003 269.1139 15.08832570 98080,6917.903,95.438,540.673,538.863,0.0
53894.0,STARLINK-5043,PAYLOAD,2024-06-30 19:01:42,15.08835814,0.0001331,53.2152,213.5132,91.3814,268.733,-2.6874e-06,-3.31e-06,0.0,0 STARLINK-5043,1 53894U 22119J   24182.79284966 -.00000331  00000-0 -26874-5 0  9993,2 53894  53.2152 213.5132 0001331  91.3814 268.7330 15.08835814 98559,6917.893,95.438,540.679,538.837,0.0
53894.0,STARLINK-5043,PAYLOAD,2024-07-01 09:20:10,15.08839303,0.0001304,53.215,210.8365,90.896,269.2182,7.7582e-05,9.47e-06,0.0,0 STARLINK-5043,1 53894U 22119J   24183.38900767  .00000947  00000-0  77582-4 0  9995,2 53894  53.2150 210.8365 0001304  90.8960 269.2182 15.08839303 98223,6917.883,95.438,540.65,538.845,0.0
53894.0,STARLINK-5043,PAYLOAD,2024-07-02 09:10:57,15.08840812,0.0001221,53.2142,206.3754,86.8752,273.238,0.0001084,1.438e-05,0.0,0 STARLINK-5043,1 53894U 22119J   24184.38260781  .00001438  00000-0  10840-3 0  9990,2 53894  53.2142 206.3754 0001221  86.8752 273.2380 15.08840812 98792,6917.878,95.438,540.588,538.898,0.0
53894.0,STARLINK-5043,PAYLOAD,2024-07-02 18:43:16,15.08840814,0.0001225,53.2143,204.5915,89.2329,270.8803,8.9191e-05,1.132e-05,0.0,0 STARLINK-5043,1 53894U 22119J   24184.78004792  .00001132  00000-0  89191-4 0  9999,2 53894  53.2143 204.5915 0001225  89.2329 270.8803 15.08840814 98439,6917.878,95.438,540.59,538.895,0.0
53894.0,STARLINK-5043,PAYLOAD,2024-07-03 18:34:03,15.08843076,0.000122,53.2146,200.1308,90.159,269.9542,3.5338e-05,2.75e-06,0.0,0 STARLINK-5043,1 53894U 22119J   24185.77364598  .00000275  00000-0  35338-4 0  9993,2 53894  53.2146 200.1308 0001220  90.1590 269.9542 15.08843076 99002,6917.871,95.437,540.58,538.892,0.0
53894.0,STARLINK-5043,PAYLOAD,2024-07-04 10:27:54,15.08840999,0.0001283,53.2148,197.1571,90.1609,269.9531,1.8179e-05,1e-08,0.0,0 STARLINK-5043,1 53894U 22119J   24186.43604693  .00000001  00000-0  18179-4 0  9991,2 53894  53.2148 197.1571 0001283  90.1609 269.9531 15.08840999 98683,6917.877,95.437,540.63,538.855,0.0
53894.0,STARLINK-5043,PAYLOAD,2024-07-04 18:24:49,15.08841929,0.0001282,53.215,195.6704,89.8754,270.2385,3.1988e-05,2.21e-06,0.0,0 STARLINK-5043,1 53894U 22119J   24186.76724523  .00000221  00000-0  31988-4 0  9999,2 53894  53.2150 195.6704 0001282  89.8754 270.2385 15.08841929 99151,6917.874,95.437,540.626,538.853,0.0
53894.0,STARLINK-5043,PAYLOAD,2024-07-05 10:18:41,15.08844526,0.0001324,53.2152,192.6966,91.6122,268.5022,5.3577e-05,5.65e-06,0.0,0 STARLINK-5043,1 53894U 22119J   24187.42964174  .00000565  00000-0  53577-4 0  9990,2 53894  53.2152 192.6966 0001324  91.6122 268.5022 15.08844526 99252,6917.867,95.437,540.647,538.816,0.0
53894.0,STARLINK-5043,PAYLOAD,2024-07-06 05:23:19,15.08835245,0.0001339,53.2153,189.1274,92.5287,267.5858,1.2771e-05,-8.5e-07,0.0,0 STARLINK-5043,1 53894U 22119J   24188.22452927 -.00000085  00000-0  12771-4 0  9996,2 53894  53.2153 189.1274 0001339  92.5287 267.5858 15.08835245 98954,6917.895,95.438,540.686,538.834,0.0
53894.0,STARLINK-5043,PAYLOAD,2024-07-06 06:58:42,15.08836362,0.0001315,53.2153,188.8302,91.5242,268.5901,7.99e-06,-1.61e-06,0.0,0 STARLINK-5043,1 53894U 22119J   24188.29076885 -.00000161  00000-0  79900-5 0  9991,2 53894  53.2153 188.8302 0001315  91.5242 268.5901 15.08836362 99385,6917.892,95.438,540.666,538.847,0.0
53894.0,STARLINK-5043,PAYLOAD,2024-07-06 22:52:34,15.0883446,0.0001353,53.2156,185.8566,91.0215,269.0932,-1.6493e-05,-5.5e-06,0.0,0 STARLINK-5043,1 53894U 22119J   24188.95317177 -.00000550  00000-0 -16493-4 0  9996,2 53894  53.2156 185.8566 0001353  91.0215 269.0932 15.08834460 99482,6917.897,95.438,540.698,538.826,0.0
53894.0,STARLINK-5043,PAYLOAD,2024-07-07 06:49:29,15.08838387,0.0001366,53.216,184.3703,91.2154,268.8995,-5.7557e-06,-3.8e-06,0.0,0 STARLINK-5043,1 53894U 22119J   24189.28436945 -.00000380  00000-0 -57557-5 0  9996,2 53894  53.2160 184.3703 0001366  91.2154 268.8995 15.08838387 99110,6917.885,95.438,540.695,538.805,0.0
53894.0,STARLINK-5043,PAYLOAD,2024-07-08 09:51:02,15.08839958,0.0001332,53.2158,179.3158,92.8181,267.2963,7.8006e-05,9.54e-06,0.0,0 STARLINK-5043,1 53894U 22119J   24190.41044748  .00000954  00000-0  78006-4 0  9995,2 53894  53.2158 179.3158 0001332  92.8181 267.2963 15.08839958 99286,6917.881,95.438,540.667,538.824,0.0
53894.0,STARLINK-5043,PAYLOAD,2024-07-08 16:12:35,15.08837307,0.0001316,53.2156,178.1259,91.5065,268.6077,5.0063e-05,5.09e-06,0.0,0 STARLINK-5043,1 53894U 22119J   24190.67541051  .00000509  00000-0  50063-4 0  9991,2 53894  53.2156 178.1259 0001316  91.5065 268.6077 15.08837307 99740,6917.889,95.438,540.664,538.843,0.0
53894.0,STARLINK-5043,PAYLOAD,2024-07-09 04:55:40,15.08833866,0.0001303,53.2154,175.7468,87.8197,272.2945,1.8826e-05,1.2e-07,0.0,0 STARLINK-5043,1 53894U 22119J   24191.20533535  .00000012  00000-0  18826-4 0  9999,2 53894  53.2154 175.7468 0001303  87.8197 272.2945 15.08833866 99407,6917.899,95.438,540.666,538.863,0.0
